{"type": "FeatureCollection", "features": [ {"type": "Feature", "properties": {"norad_id": 41785, "name": "ALSAT 1B", "group": "resource", "lat": -43.30103567772279, "lon": 179.48990601595176, "alt_km": 667.3074080458109, "timestamp": "2025-12-21T11:31:42.499323+00:00", "meta": {"OBJECT_NAME": "ALSAT 1B", "OBJECT_ID": "2016-059C", "EPOCH": "2025-12-21T05:37:19.752096", "MEAN_MOTION": 14.7208371, "ECCENTRICITY": 0.0010796, "INCLINATION": 97.7805, "RA_OF_ASC_NODE": 6.6576, "ARG_OF_PERICENTER": 79.6402, "MEAN_ANOMALY": 280.6022, "EPHEMERIS_TYPE": 0, "CLASSIFICATION_TYPE": "U", "NORAD_CAT_ID": 41785, "ELEMENT_SET_NO": 999, "REV_AT_EPOCH": 49439, "BSTAR": 5.2501e-05, "MEAN_MOTION_DOT": 2.83e-06, "MEAN_MOTION_DDOT": 0}, "tle": {"line1": "1 41785U 16059C   25355.23425639  .00000283  00000+0  52501-4 0  9999", "line2": "2 41785  97.7805   6.6576 0010796  79.6402 280.6022 14.72083710494396"}}, "geometry": {"type": "Point", "coordinates": [179.48990601595176, -43.30103567772279]}}, {"type": "Feature", "properties": {"norad_id": 41787, "name": "PATHFINDER 1", "group": "resource", "lat": 26.33551844379583, "lon": -178.25410022482814, "alt_km": 671.814673221339, "timestamp": "2025-12-21T11:31:42.499333+00:00", "meta": {"OBJECT_NAME": "PATHFINDER 1", "OBJECT_ID": "2016-059E", "EPOCH": "2025-12-20T21:44:31.538112", "MEAN_MOTION": 14.67334172, "ECCENTRICITY": 0.0029819, "INCLINATION": 97.8136, "RA_OF_ASC_NODE": 357.3006, "ARG_OF_PERICENTER": 56.3339, "MEAN_ANOMALY": 304.0703, "EPHEMERIS_TYPE": 0, "CLASSIFICATION_TYPE": "U", "NORAD_CAT_ID": 41787, "ELEMENT_SET_NO": 999, "REV_AT_EPOCH": 49356, "BSTAR": 0.00010532, "MEAN_MOTION_DOT": 5.52e-06, "MEAN_MOTION_DDOT": 0}, "tle": {"line1": "1 41787U 16059E   25354.90592058  .00000552  00000+0  10532-3 0  9990", "line2": "2 41787  97.8136 357.3006 0029819  56.3339 304.0703 14.67334172493567"}}, "geometry": {"type": "Point", "coordinates": [-178.25410022482814, 26.33551844379583]}}, {"type": "Feature", "properties": {"norad_id": 41790, "name": "SCATSAT 1", "group": "resource", "lat": 28.092485348790863, "lon": -123.35621188353325, "alt_km": 606.3822802463646, "timestamp": "2025-12-21T11:31:42.499344+00:00", "meta": {"OBJECT_NAME": "SCATSAT 1", "OBJECT_ID": "2016-059H", "EPOCH": "2025-12-21T02:43:55.699968", "MEAN_MOTION": 14.78961089, "ECCENTRICITY": 0.0056459, "INCLINATION": 98.1451, "RA_OF_ASC_NODE": 51.8883, "ARG_OF_PERICENTER": 101.6086, "MEAN_ANOMALY": 259.147, "EPHEMERIS_TYPE": 0, "CLASSIFICATION_TYPE": "U", "NORAD_CAT_ID": 41790, "ELEMENT_SET_NO": 999, "REV_AT_EPOCH": 7526, "BSTAR": 0.00013897, "MEAN_MOTION_DOT": 9.97e-06, "MEAN_MOTION_DDOT": 0}, "tle": {"line1": "1 41790U 16059H   25355.11383912  .00000997  00000+0  13897-3 0  9995", "line2": "2 41790  98.1451  51.8883 0056459 101.6086 259.1470 14.78961089 75266"}}, "geometry": {"type": "Point", "coordinates": [-123.35621188353325, 28.092485348790863]}}, {"type": "Feature", "properties": {"norad_id": 41875, "name": "GOKTURK 1A", "group": "resource", "lat": 81.50496218687385, "lon": 174.25734019868992, "alt_km": 675.8239883811493, "timestamp": "2025-12-21T11:31:42.499355+00:00", "meta": {"OBJECT_NAME": "GOKTURK 1A", "OBJECT_ID": "2016-073A", "EPOCH": "2025-12-21T04:33:46.509696", "MEAN_MOTION": 14.62788437, "ECCENTRICITY": 0.0001293, "INCLINATION": 98.1435, "RA_OF_ASC_NODE": 247.4426, "ARG_OF_PERICENTER": 81.1408, "MEAN_ANOMALY": 278.994, "EPHEMERIS_TYPE": 0, "CLASSIFICATION_TYPE": "U", "NORAD_CAT_ID": 41875, "ELEMENT_SET_NO": 999, "REV_AT_EPOCH": 48280, "BSTAR": 7.3137e-05, "MEAN_MOTION_DOT": 3.26e-06, "MEAN_MOTION_DDOT": 0}, "tle": {"line1": "1 41875U 16073A   25355.19012164  .00000326  00000+0  73137-4 0  9991", "line2": "2 41875  98.1435 247.4426 0001293  81.1408 278.9940 14.62788437482804"}}, "geometry": {"type": "Point", "coordinates": [174.25734019868992, 81.50496218687385]}}, {"type": "Feature", "properties": {"norad_id": 41877, "name": "RESOURCESAT-2A", "group": "resource", "lat": -74.51496599140211, "lon": 99.17165441440802, "alt_km": 826.8551029156197, "timestamp": "2025-12-21T11:31:42.499366+00:00", "meta": {"OBJECT_NAME": "RESOURCESAT-2A", "OBJECT_ID": "2016-074A", "EPOCH": "2025-12-21T05:08:03.765408", "MEAN_MOTION": 14.21602074, "ECCENTRICITY": 0.0001435, "INCLINATION": 98.7752, "RA_OF_ASC_NODE": 65.0208, "ARG_OF_PERICENTER": 214.9229, "MEAN_ANOMALY": 145.1854, "EPHEMERIS_TYPE": 0, "CLASSIFICATION_TYPE": "U", "NORAD_CAT_ID": 41877, "ELEMENT_SET_NO": 999, "REV_AT_EPOCH": 46901, "BSTAR": -5.576e-05, "MEAN_MOTION_DOT": -1.67e-06, "MEAN_MOTION_DDOT": 0}, "tle": {"line1": "1 41877U 16074A   25355.21393247 -.00000167  00000+0 -55760-4 0  9998", "line2": "2 41877  98.7752  65.0208 0001435 214.9229 145.1854 14.21602074469015"}}, "geometry": {"type": "Point", "coordinates": [99.17165441440802, -74.51496599140211]}}, {"type": "Feature", "properties": {"norad_id": 41948, "name": "CARTOSAT-2D", "group": "resource", "lat": 60.946393818746174, "lon": -113.55344603598105, "alt_km": 498.4857758069211, "timestamp": "2025-12-21T11:31:42.499377+00:00", "meta": {"OBJECT_NAME": "CARTOSAT-2D", "OBJECT_ID": "2017-008A", "EPOCH": "2025-12-21T04:41:16.504224", "MEAN_MOTION": 15.19331844, "ECCENTRICITY": 0.0005324, "INCLINATION": 97.4379, "RA_OF_ASC_NODE": 52.5646, "ARG_OF_PERICENTER": 137.5428, "MEAN_ANOMALY": 222.6219, "EPHEMERIS_TYPE": 0, "CLASSIFICATION_TYPE": "U", "NORAD_CAT_ID": 41948, "ELEMENT_SET_NO": 999, "REV_AT_EPOCH": 49055, "BSTAR": 7.1204e-05, "MEAN_MOTION_DOT": 1.436e-05, "MEAN_MOTION_DDOT": 0}, "tle": {"line1": "1 41948U 17008A   25355.19532991  .00001436  00000+0  71204-4 0  9992", "line2": "2 41948  97.4379  52.5646 0005324 137.5428 222.6219 15.19331844490555"}}, "geometry": {"type": "Point", "coordinates": [-113.55344603598105, 60.946393818746174]}}, {"type": "Feature", "properties": {"norad_id": 42063, "name": "SENTINEL-2B", "group": "resource", "lat": -0.9328088829244944, "lon": -112.33685377118952, "alt_km": 792.0330180167384, "timestamp": "2025-12-21T11:31:42.499387+00:00", "meta": {"OBJECT_NAME": "SENTINEL-2B", "OBJECT_ID": "2017-013A", "EPOCH": "2025-12-21T03:58:22.216224", "MEAN_MOTION": 14.30813947, "ECCENTRICITY": 0.0001192, "INCLINATION": 98.5713, "RA_OF_ASC_NODE": 67.4935, "ARG_OF_PERICENTER": 93.9365, "MEAN_ANOMALY": 266.1954, "EPHEMERIS_TYPE": 0, "CLASSIFICATION_TYPE": "U", "NORAD_CAT_ID": 42063, "ELEMENT_SET_NO": 999, "REV_AT_EPOCH": 45918, "BSTAR": 6.538e-05, "MEAN_MOTION_DOT": 1.28e-06, "MEAN_MOTION_DDOT": 0}, "tle": {"line1": "1 42063U 17013A   25355.16553491  .00000128  00000+0  65380-4 0  9997", "line2": "2 42063  98.5713  67.4935 0001192  93.9365 266.1954 14.30813947459182"}}, "geometry": {"type": "Point", "coordinates": [-112.33685377118952, -0.9328088829244944]}}, {"type": "Feature", "properties": {"norad_id": 42767, "name": "CARTOSAT-2E", "group": "resource", "lat": 26.71431887162522, "lon": 49.174544280675356, "alt_km": 508.8707533739289, "timestamp": "2025-12-21T11:31:42.499398+00:00", "meta": {"OBJECT_NAME": "CARTOSAT-2E", "OBJECT_ID": "2017-036C", "EPOCH": "2025-12-21T03:30:23.613696", "MEAN_MOTION": 15.19273232, "ECCENTRICITY": 0.0002615, "INCLINATION": 97.4549, "RA_OF_ASC_NODE": 52.6231, "ARG_OF_PERICENTER": 195.8484, "MEAN_ANOMALY": 164.2669, "EPHEMERIS_TYPE": 0, "CLASSIFICATION_TYPE": "U", "NORAD_CAT_ID": 42767, "ELEMENT_SET_NO": 999, "REV_AT_EPOCH": 47111, "BSTAR": 9.8677e-05, "MEAN_MOTION_DOT": 2.013e-05, "MEAN_MOTION_DDOT": 0}, "tle": {"line1": "1 42767U 17036C   25355.14610664  .00002013  00000+0  98677-4 0  9997", "line2": "2 42767  97.4549  52.6231 0002615 195.8484 164.2669 15.19273232471111"}}, "geometry": {"type": "Point", "coordinates": [49.174544280675356, 26.71431887162522]}}, {"type": "Feature", "properties": {"norad_id": 42920, "name": "FORMOSAT-5", "group": "resource", "lat": 81.33035163915358, "lon": -38.412741964305184, "alt_km": 722.6806053797873, "timestamp": "2025-12-21T11:31:42.499408+00:00", "meta": {"OBJECT_NAME": "FORMOSAT-5", "OBJECT_ID": "2017-049A", "EPOCH": "2025-12-21T04:28:52.727232", "MEAN_MOTION": 14.50764979, "ECCENTRICITY": 0.0009829, "INCLINATION": 98.2443, "RA_OF_ASC_NODE": 69.3361, "ARG_OF_PERICENTER": 272.7638, "MEAN_ANOMALY": 87.2431, "EPHEMERIS_TYPE": 0, "CLASSIFICATION_TYPE": "U", "NORAD_CAT_ID": 42920, "ELEMENT_SET_NO": 999, "REV_AT_EPOCH": 44086, "BSTAR": 4.6017e-05, "MEAN_MOTION_DOT": 1.37e-06, "MEAN_MOTION_DDOT": 0}, "tle": {"line1": "1 42920U 17049A   25355.18672138  .00000137  00000+0  46017-4 0  9996", "line2": "2 42920  98.2443  69.3361 0009829 272.7638  87.2431 14.50764979440869"}}, "geometry": {"type": "Point", "coordinates": [-38.412741964305184, 81.33035163915358]}}, {"type": "Feature", "properties": {"norad_id": 42969, "name": "SENTINEL-5P", "group": "resource", "lat": -42.999072702189416, "lon": 105.70161916469323, "alt_km": 834.0822729886413, "timestamp": "2025-12-21T11:31:42.499420+00:00", "meta": {"OBJECT_NAME": "SENTINEL-5P", "OBJECT_ID": "2017-064A", "EPOCH": "2025-12-21T02:01:13.238400", "MEAN_MOTION": 14.19519327, "ECCENTRICITY": 0.0001015, "INCLINATION": 98.7797, "RA_OF_ASC_NODE": 293.5947, "ARG_OF_PERICENTER": 90.7517, "MEAN_ANOMALY": 269.3776, "EPHEMERIS_TYPE": 0, "CLASSIFICATION_TYPE": "U", "NORAD_CAT_ID": 42969, "ELEMENT_SET_NO": 999, "REV_AT_EPOCH": 42429, "BSTAR": 4.0989e-05, "MEAN_MOTION_DOT": 4.2e-07, "MEAN_MOTION_DDOT": 0}, "tle": {"line1": "1 42969U 17064A   25355.08418100  .00000042  00000+0  40989-4 0  9999", "line2": "2 42969  98.7797 293.5947 0001015  90.7517 269.3776 14.19519327424297"}}, "geometry": {"type": "Point", "coordinates": [105.70161916469323, -42.999072702189416]}}]}